NORAD_CAT_ID,OBJECT_NAME,OBJECT_TYPE,EPOCH,MEAN_MOTION,ECCENTRICITY,INCLINATION,RA_OF_ASC_NODE,ARG_OF_PERICENTER,MEAN_ANOMALY,BSTAR,MEAN_MOTION_DOT,MEAN_MOTION_DDOT,TLE_LINE0,TLE_LINE1,TLE_LINE2,SEMIMAJOR_AXIS,PERIOD,APOGEE,PERIGEE,DECAYED
52476.0,STARLINK-3835,PAYLOAD,2022-07-31 14:00:01,15.31615135,0.0001595,53.2172,202.6746,51.8358,148.33100000000005,-0.03762,-0.0106796,0.0,0 STARLINK-3835,1 52476U 22049AB  22212.58334491 -.01067960  00000-0 -37620-1 0  9997,2 52476  53.2172 202.6746 0001595  51.8358 148.3310 15.31615135  1308,6849.13,94.018,472.087,469.903,0.0
52476.0,STARLINK-3835,PAYLOAD,2022-07-31 22:00:00,15.30854815,0.0001694,53.2173,201.1229,44.5123,194.1531,-0.0384829999999999,-0.01066839,0.0,0 STARLINK-3835,1 52476U 22049AB  22212.91667824 -.01066839  00000-0 -38483-1 0  9995,2 52476  53.2173 201.1229 0001694  44.5123 194.1531 15.30854815 13742,6851.398,94.065,474.423,472.102,0.0
52476.0,STARLINK-3835,PAYLOAD,2022-08-01 14:00:01,15.2933764,0.0001541999999999,53.2172,198.029,43.619,269.3022,-0.040467,-0.01069776,0.0,0 STARLINK-3835,1 52476U 22049AB  22213.58334491 -.01069776  00000-0 -40467-1 0  9998,2 52476  53.2172 198.0290 0001542  43.6190 269.3022 15.29337640  1308,6855.928000000001,94.158,478.85,476.736,0.0
52476.0,STARLINK-3835,PAYLOAD,2022-08-01 22:00:00,15.28574373,0.0001703,53.2174,196.483,35.8064,312.8762,-0.041157,-0.01063254,0.0,0 STARLINK-3835,1 52476U 22049AB  22213.91667824 -.01063254  00000-0 -41157-1 0  9996,2 52476  53.2174 196.4830 0001703  35.8064 312.8762 15.28574373 13903,6858.21,94.205,481.24300000000005,478.907,0.0
52476.0,STARLINK-3835,PAYLOAD,2022-08-02 14:00:01,15.270574800000002,0.0001686999999999,53.2173,193.3996,37.7108,19.7517,-0.043267,-0.01066595,0.0,0 STARLINK-3835,1 52476U 22049AB  22214.58334491 -.01066595  00000-0 -43267-1 0  9996,2 52476  53.2173 193.3996 0001687  37.7108  19.7517 15.27057480  1308,6862.751,94.299,485.774,483.458,0.0
52476.0,STARLINK-3835,PAYLOAD,2022-08-03 14:00:01,15.24778414,0.0001641999999999,53.2173,188.7862,49.4081,104.3813,-0.046297,-0.01065125,0.0,0 STARLINK-3835,1 52476U 22049AB  22215.58334491 -.01065125  00000-0 -46297-1 0  9991,2 52476  53.2173 188.7862 0001642  49.4081 104.3813 15.24778414 14150,6869.5880000000025,94.44,492.581,490.325,0.0
52476.0,STARLINK-3835,PAYLOAD,2022-08-03 22:00:01,15.24018599,0.0001726,53.2176,187.2511,47.8848,136.2519,-0.047306,-0.01063877,0.0,0 STARLINK-3835,1 52476U 22049AB  22215.91668981 -.01063877  00000-0 -47306-1 0  9996,2 52476  53.2176 187.2511 0001726  47.8848 136.2519 15.24018599  1305,6871.871,94.487,494.922,492.55,0.0
52476.0,STARLINK-3835,PAYLOAD,2022-08-04 14:00:01,15.22500934,0.0001561999999999,53.2174,184.1889,53.6319,188.2698,-0.049648,-0.01066754,0.0,0 STARLINK-3835,1 52476U 22049AB  22216.58334491 -.01066754  00000-0 -49648-1 0  9994,2 52476  53.2174 184.1889 0001562  53.6319 188.2698 15.22500934  1305,6876.437,94.581,499.376,497.228,0.0
52476.0,STARLINK-3835,PAYLOAD,2022-08-04 22:00:00,15.21739365,0.000164,53.2175,182.6592,47.3286,222.1195,-0.050542,-0.01062126,0.0,0 STARLINK-3835,1 52476U 22049AB  22216.91667824 -.01062126  00000-0 -50542-1 0  9994,2 52476  53.2175 182.6592 0001640  47.3286 222.1195 15.21739365  1301,6878.731,94.629,501.724,499.468,0.0
52476.0,STARLINK-3835,PAYLOAD,2022-08-05 14:00:01,15.20222516,0.0001499,53.2174,179.6075,47.1835,274.6804,-0.053122,-0.01067044,0.0,0 STARLINK-3835,1 52476U 22049AB  22217.58335648 -.01067044  00000-0 -53122-1 0  9995,2 52476  53.2174 179.6075 0001499  47.1835 274.6804 15.20222516  1305,6883.306,94.723,506.203,504.139,0.0
52476.0,STARLINK-3835,PAYLOAD,2022-08-05 22:00:00,15.1946017,0.0001472,53.2177,178.0834,49.1728,297.4363,-0.053985,-0.01060977,0.0,0 STARLINK-3835,1 52476U 22049AB  22217.91667824 -.01060977  00000-0 -53985-1 0  9991,2 52476  53.2177 178.0834 0001472  49.1728 297.4363 15.19460170  1309,6885.608,94.77,508.487,506.459,0.0
52476.0,STARLINK-3835,PAYLOAD,2022-08-05 22:04:26,15.21574161,0.0001679,53.2112,178.0932,38.4512,321.6605,-0.013965,-0.00306242,0.0,0 STARLINK-3835,1 52476U 22049AB  22217.91975320 -.00306242  00000-0 -13965-1 0  9995,2 52476  53.2112 178.0932 0001679  38.4512 321.6605 15.21574161 14513,6879.229,94.639,502.249,499.939,0.0
52476.0,STARLINK-3835,PAYLOAD,2022-08-06 06:00:00,15.18702629,0.000158,53.2175,176.5635,44.1562,326.3461,-0.0554039999999999,-0.01078258,0.0,0 STARLINK-3835,1 52476U 22049AB  22218.25001157 -.01078258  00000-0 -55404-1 0  9999,2 52476  53.2175 176.5635 0001580  44.1562 326.3461 15.18702629 14560,6887.898,94.818,510.851,508.674,0.0
52476.0,STARLINK-3835,PAYLOAD,2022-08-06 14:00:01,15.17942969,0.0001591,53.2174,175.0421,41.8474,351.6385,-0.056665,-0.01078729,0.0,0 STARLINK-3835,1 52476U 22049AB  22218.58334491 -.01078729  00000-0 -56665-1 0  9998,2 52476  53.2174 175.0421 0001591  41.8474 351.6385 15.17942969  1300,6890.195,94.865,513.1569999999998,510.964,0.0
52476.0,STARLINK-3835,PAYLOAD,2022-08-06 22:00:00,15.17181311,0.0001603,53.2176,173.5236,44.589,10.967,-0.057658,-0.0107411,0.0,0 STARLINK-3835,1 52476U 22049AB  22218.91667824 -.01074110  00000-0 -57658-1 0  9997,2 52476  53.2176 173.5236 0001603  44.5890  10.9670 15.17181311  1303,6892.501,94.913,515.471,513.261,0.0
52476.0,STARLINK-3835,PAYLOAD,2022-08-07 06:00:00,15.16423306,0.0001665,53.2175,172.0089,45.2386,31.4729,-0.0591059999999999,-0.01077118,0.0,0 STARLINK-3835,1 52476U 22049AB  22219.25001157 -.01077118  00000-0 -59106-1 0  9997,2 52476  53.2175 172.0089 0001665  45.2386  31.4729 15.16423306 14712,6894.7980000000025,94.96,517.811,515.515,0.0
52476.0,STARLINK-3835,PAYLOAD,2022-08-07 12:00:23,15.17997464,0.0001335,53.2109,170.8945,58.2663,301.8463,-0.016081,-0.00317198,0.0,0 STARLINK-3835,1 52476U 22049AB  22219.50027771 -.00317198  00000-0 -16081-1 0  9994,2 52476  53.2109 170.8945 0001335  58.2663 301.8463 15.17997464 15837,6890.03,94.862,512.815,510.976,0.0
52476.0,STARLINK-3835,PAYLOAD,2022-08-07 21:30:27,15.16817949,0.0003128,53.2114,169.0982,34.6342,325.4857,-0.016026,-0.00306104,0.0,0 STARLINK-3835,1 52476U 22049AB  22219.89615099 -.00306104  00000-0 -16026-1 0  9996,2 52476  53.2114 169.0982 0003128  34.6342 325.4857 15.16817949 15891,6893.602,94.936,517.623,513.311,0.0
52476.0,STARLINK-3835,PAYLOAD,2022-08-08 03:50:35,15.16143624,0.000187,53.2114,167.90200000000004,55.5922,304.525,-0.016343,-0.00306135,0.0,0 STARLINK-3835,1 52476U 22049AB  22220.16013634 -.00306135  00000-0 -16343-1 0  9991,2 52476  53.2114 167.9020 0001870  55.5922 304.5250 15.16143624 14851,6895.646,94.978,518.8,516.221,0.0
52476.0,STARLINK-3835,PAYLOAD,2022-08-08 14:00:01,15.13384224,0.0001675999999999,53.2174,165.9592,50.0719,102.2051,-0.064313,-0.01075067,0.0,0 STARLINK-3835,1 52476U 22049AB  22220.58335648 -.01075067  00000-0 -64313-1 0  9997,2 52476  53.2174 165.9592 0001676  50.0719 102.2051 15.13384224 14916,6904.025,95.151,527.047,524.7330000000002,0.0
52476.0,STARLINK-3835,PAYLOAD,2022-08-08 22:00:00,15.12623794,0.0001721999999999,53.2177,164.4516,50.4649,118.3428,-0.06559,-0.01073328,0.0,0 STARLINK-3835,1 52476U 22049AB  22220.91667824 -.01073328  00000-0 -65590-1 0  9994,2 52476  53.2177 164.4516 0001722  50.4649 118.3428 15.12623794  1309,6906.339,95.199,529.393,527.015,0.0
52476.0,STARLINK-3835,PAYLOAD,2022-08-09 14:00:01,15.11105346,0.0001699999999999,53.2174,161.4416,50.2592,148.9977,-0.068488,-0.0107406,0.0,0 STARLINK-3835,1 52476U 22049AB  22221.58334491 -.01074060  00000-0 -68488-1 0  9992,2 52476  53.2174 161.4416 0001700  50.2592 148.9977 15.11105346 15066,6910.965,95.294,534.005,531.655,0.0
52476.0,STARLINK-3835,PAYLOAD,2022-08-09 22:00:00,15.10346168,0.0001666999999999,53.2176,159.9397,53.2477,159.8644,-0.070021,-0.0107507,0.0,0 STARLINK-3835,1 52476U 22049AB  22221.91667824 -.01075070  00000-0 -70021-1 0  9996,2 52476  53.2176 159.9397 0001667  53.2477 159.8644 15.10346168  1307,6913.28,95.342,536.298,533.993,0.0
52476.0,STARLINK-3835,PAYLOAD,2022-08-10 14:00:01,15.08861413,0.0001485,53.2175,156.9417,55.9286,182.2213,-0.0026058,-0.00041545,0.0,0 STARLINK-3835,1 52476U 22049AB  22222.58334491 -.00041545  00000-0 -26058-2 0  9992,2 52476  53.2175 156.9417 0001485  55.9286 182.2213 15.08861413  1305,6917.815,95.436,540.707,538.653,0.0
52476.0,STARLINK-3835,PAYLOAD,2022-08-10 17:07:18,15.08837104,0.0001601,53.2172,156.3573,50.8523,174.2071,-0.00010148,-1.903e-05,0.0,0 STARLINK-3835,1 52476U 22049AB  22222.71341435 -.00001903  00000-0 -10148-3 0  9991,2 52476  53.2172 156.3573 0001601  50.8523 174.2071 15.08837104 15248,6917.889,95.438,540.862,538.6469999999998,0.0
52476.0,STARLINK-3835,PAYLOAD,2022-08-10 22:00:00,15.088363199999998,0.0001641,53.2175,155.4456,50.8483,198.9044,6.314e-05,7.17e-06,0.0,0 STARLINK-3835,1 52476U 22049AB  22222.91667824  .00000717  00000-0  63140-4 0  9997,2 52476  53.2175 155.4456 0001641  50.8483 198.9044 15.08836320  1304,6917.892,95.438,540.8919999999998,538.621,0.0
52476.0,STARLINK-3835,PAYLOAD,2022-08-11 06:00:02,15.08855374,0.0001476999999999,53.2121,153.958,40.7241,220.7155,0.0012120999999999,0.00019063,0.0,0 STARLINK-3835,1 52476U 22049AB  22223.25002315  .00019063  00000-0  12121-2 0  9998,2 52476  53.2121 153.9580 0001477  40.7241 220.7155 15.08855374 15327,6917.833000000001,95.437,540.72,538.677,0.0
52476.0,STARLINK-3835,PAYLOAD,2022-08-11 14:00:01,15.08861268,0.0001434,53.2123,152.4597,49.8606,223.1549,-0.0045508999999999,-0.00072033,0.0,0 STARLINK-3835,1 52476U 22049AB  22223.58334491 -.00072033  00000-0 -45509-2 0  9991,2 52476  53.2123 152.4597 0001434  49.8606 223.1549 15.08861268  1305,6917.815,95.436,540.672,538.688,0.0
52476.0,STARLINK-3835,PAYLOAD,2022-08-11 22:00:00,15.0882051,0.0001618,53.2124,150.9637,55.4809,229.1168,-0.0009074999999999,-0.00014694,0.0,0 STARLINK-3835,1 52476U 22049AB  22223.91667824 -.00014694  00000-0 -90750-3 0  9995,2 52476  53.2124 150.9637 0001618  55.4809 229.1168 15.08820510 15422,6917.94,95.439,540.924,538.686,0.0
